{
  "links" : {
    "next" : "https://api.nasa.gov/neo/rest/v1/feed?start_date=2003-11-23&end_date=2003-11-23&detailed=true&api_key=t0TVs3DtDT2H8Oy2Zy8m2eVrNsAVKAexjcZXUckd",
    "prev" : "https://api.nasa.gov/neo/rest/v1/feed?start_date=2003-11-21&end_date=2003-11-21&detailed=true&api_key=t0TVs3DtDT2H8Oy2Zy8m2eVrNsAVKAexjcZXUckd",
    "self" : "https://api.nasa.gov/neo/rest/v1/feed?start_date=2003-11-22&end_date=2003-11-22&detailed=true&api_key=t0TVs3DtDT2H8Oy2Zy8m2eVrNsAVKAexjcZXUckd"
  },
  "element_count" : 7,
  "near_earth_objects" : {
    "2003-11-22" : [ {
      "links" : {
        "self" : "https://api.nasa.gov/neo/rest/v1/neo/3764822?api_key=t0TVs3DtDT2H8Oy2Zy8m2eVrNsAVKAexjcZXUckd"
      },
      "neo_reference_id" : "3764822",
      "name" : "(2016 WY7)",
      "nasa_jpl_url" : "http://ssd.jpl.nasa.gov/sbdb.cgi?sstr=3764822",
      "absolute_magnitude_h" : 22.6,
      "estimated_diameter" : {
        "kilometers" : {
          "estimated_diameter_min" : 0.0802703167,
          "estimated_diameter_max" : 0.1794898848
        },
        "meters" : {
          "estimated_diameter_min" : 80.2703167283,
          "estimated_diameter_max" : 179.4898847799
        },
        "miles" : {
          "estimated_diameter_min" : 0.049877647,
          "estimated_diameter_max" : 0.1115298092
        },
        "feet" : {
          "estimated_diameter_min" : 263.3540659348,
          "estimated_diameter_max" : 588.8775935812
        }
      },
      "is_potentially_hazardous_asteroid" : false,
      "close_approach_data" : [ {
        "close_approach_date" : "2003-11-22",
        "epoch_date_close_approach" : 1069488000000,
        "relative_velocity" : {
          "kilometers_per_second" : "12.8121340052",
          "kilometers_per_hour" : "46123.6824186124",
          "miles_per_hour" : "28659.462556165"
        },
        "miss_distance" : {
          "astronomical" : "0.1443922199",
          "lunar" : "56.1685752869",
          "kilometers" : "21600770",
          "miles" : "13422096"
        },
        "orbiting_body" : "Earth"
      } ],
      "orbital_data" : {
        "orbit_id" : "3",
        "orbit_determination_date" : "2017-04-06 08:21:56",
        "orbit_uncertainty" : "5",
        "minimum_orbit_intersection" : ".0171663",
        "jupiter_tisserand_invariant" : "5.513",
        "epoch_osculation" : "2458000.5",
        "eccentricity" : ".2334297422015662",
        "semi_major_axis" : "1.120448373417404",
        "inclination" : "15.55617689333134",
        "ascending_node_longitude" : "52.11086133369007",
        "orbital_period" : "433.197760283308",
        "perihelion_distance" : ".8589023984604151",
        "perihelion_argument" : "96.67727170757264",
        "aphelion_distance" : "1.381994348374392",
        "perihelion_time" : "2457795.944028658258",
        "mean_anomaly" : "169.9919908054624",
        "mean_motion" : ".8310292273084763",
        "equinox" : "J2000"
      }
    } ]
  }
}